[{"OBJECT_NAME":"STARLINK-6051","OBJECT_ID":"2023-064R","EPOCH":"2026-03-09T14:56:25.397088","MEAN_MOTION":14.98332799,"ECCENTRICITY":0.0003224,"INCLINATION":70.0006,"RA_OF_ASC_NODE":144.7164,"ARG_OF_PERICENTER":268.7718,"MEAN_ANOMALY":91.3071,"EPHEMERIS_TYPE":0,"CLASSIFICATION_TYPE":"U","NORAD_CAT_ID":56463,"ELEMENT_SET_NO":999,"REV_AT_EPOCH":15523,"BSTAR":-7.7445e-6,"MEAN_MOTION_DOT":-1.85e-6,"MEAN_MOTION_DDOT":0},{"OBJECT_NAME":"VOLGA DEB","OBJECT_ID":"2019-039F","EPOCH":"2026-03-07T20:53:51.094464","MEAN_MOTION":14.96146064,"ECCENTRICITY":0.00076084,"INCLINATION":97.5888,"RA_OF_ASC_NODE":96.0833,"ARG_OF_PERICENTER":210.1052,"MEAN_ANOMALY":149.9734,"EPHEMERIS_TYPE":0,"CLASSIFICATION_TYPE":"U","NORAD_CAT_ID":44621,"ELEMENT_SET_NO":999,"REV_AT_EPOCH":36129,"BSTAR":0.00038662057,"MEAN_MOTION_DOT":4.299e-5,"MEAN_MOTION_DDOT":0}]
